ISS (ZARYA)             
1 25544U 98067A   25277.53072227  .00012744  00000+0  23354-3 0  9998
2 25544  51.6320 125.1332 0000980 198.3499 161.7454 15.49674063532122
CSS (TIANHE)            
1 48274U 21035A   25277.51149324  .00038304  00000+0  44461-3 0  9997
2 48274  41.4642  77.5393 0002219 186.6919 173.3891 15.61018353253214
ISS (NAUKA)             
1 49044U 21066A   25276.49892031  .00013095  00000+0  23997-3 0  9994
2 49044  51.6325 130.2428 0001007 193.4972 166.5990 15.49648180230443
CSS (WENTIAN)           
1 53239U 22085A   25276.55181324  .00041052  00000+0  47744-3 0  9990
2 53239  41.4641  83.3820 0002124 178.8419 181.2425 15.60943045173848
CSS (MENGTIAN)          
1 54216U 22143A   25276.55181324  .00041052  00000+0  47744-3 0  9991
2 54216  41.4641  83.3820 0002124 178.8419 181.2425 15.60943045158645
SOYUZ-MS 27             
1 63520U 25072A   25276.49892031  .00013095  00000+0  23997-3 0  9990
2 63520  51.6325 130.2428 0001007 193.4972 166.5990 15.49648180 20209
SHENZHOU-20 (SZ-20)     
1 63632U 25082A   25276.55181324  .00041052  00000+0  47744-3 0  9998
2 63632  41.4641  83.3820 0002124 178.8419 181.2425 15.60943045237173
PROGRESS-MS 31          
1 64751U 25146A   25276.49892031  .00013095  00000+0  23997-3 0  9999
2 64751  51.6325 130.2428 0001007 193.4972 166.5990 15.49648180  6750
TIANZHOU-9              
1 64786U 25149A   25276.55181324  .00041052  00000+0  47744-3 0  9993
2 64786  41.4641  83.3820 0002124 178.8419 181.2425 15.60943045  5111
CREW DRAGON 11          
1 65077U 25166A   25276.49892031  .00013095  00000+0  23997-3 0  9993
2 65077  51.6325 130.2428 0001007 193.4972 166.5990 15.49648180  2141
DRAGON CRS-33           
1 65304U 25186A   25276.49892031  .00013095  00000+0  23997-3 0  9998
2 65304  51.6325 130.2428 0001007 193.4972 166.5990 15.49648180   119
PROGRESS-MS 32          
1 65586U 25204A   25276.49892031  .00013095  00000+0  23997-3 0  9991
2 65586  51.6325 130.2428 0001007 193.4972 166.5990 15.49648180   571
CYGNUS NG-23            
1 65616U 25208A   25276.49892031  .00013095  00000+0  23997-3 0  9999
2 65616  51.6325 130.2428 0001007 193.4972 166.5990 15.49648180   227
1998-067XH              
1 65729U 98067XH  25276.60578939  .00103806  00000+0  15658-2 0  9992
2 65729  51.6316 129.4598 0002887 100.9471 259.1844 15.53934662  2209
1998-067XJ              
1 65730U 98067XJ  25276.59852349  .00184864  00000+0  25664-2 0  9993
2 65730  51.6315 129.4105 0002546 254.3381 105.7329 15.55865895  2207
